STARLINK-11367 [DTC]    
1 62097U 24220K   26166.14475415  .00006727  00000+0  55777-4 0  9992
2 62097  42.9993 175.3501 0001385 251.8928 108.1789 15.70882464 90385
STARLINK-11386 [DTC]    
1 62098U 24220L   26165.75795170  .00138019  00000+0  10611-2 0  9998
2 62098  42.9999 177.6072 0000719 254.7868 105.2920 15.70845952 90224
STARLINK-11380 [DTC]    
1 62099U 24220M   26165.94339130  .00146569  00000+0  11254-2 0  9993
2 62099  42.9986 176.4142 0001093 239.2683 120.8077 15.70846497 90259
STARLINK-33566          
1 62100U 24220N   26166.25002315 -.00034668  00000+0 -12555-2 0  9996
2 62100  43.0036 359.8681 0001760 271.6251  10.3057 15.27597815  5657
STARLINK-33545          
1 62101U 24220P   26165.85082332  .00015520  00000+0  57181-3 0  9998
2 62101  42.9899  16.5681 0001983 221.6567 138.4134 15.27607939 87884
STARLINK-33562          
1 62102U 24220Q   26165.86239862  .00015181  00000+0  55983-3 0  9993
2 62102  43.0047  16.6660 0002047 283.1628  76.8995 15.27592100 87886
STARLINK-33554          
1 62103U 24220R   26165.32388303  .00020619  00000+0  75645-3 0  9999
2 62103  42.9915  19.5106 0002544 278.5597  81.4967 15.27589254 87732
STARLINK-33555          
1 62104U 24220S   26165.88038826  .00025301  00000+0  92533-3 0  9991
2 62104  43.0112  16.8030 0000435 216.5098 143.5724 15.27596642 88028
STARLINK-33559          
1 62107U 24220V   26165.87653211  .00017477  00000+0  64285-3 0  9992
2 62107  42.9928  16.7694 0001843 270.5268  89.5372 15.27593506 88059
STARLINK-33553          
1 62108U 24220W   26165.28032980  .00015989  00000+0  58876-3 0  9997
2 62108  43.0075  20.0383 0001709 264.9069  95.1588 15.27610421 87962
STARLINK-33556          
1 62109U 24220X   26165.85469121  .00016214  00000+0  59712-3 0  9994
2 62109  43.0168  16.6166 0005759 283.1845  76.8364 15.27586698 88079
STARLINK-33551          
1 62110U 24220Y   26165.28419835  .00013526  00000+0  50003-3 0  9997
2 62110  42.9984  20.0602 0001557 298.1057  61.9638 15.27587812 87967
GUANGCHUAN 01           
1 62111U 24221A   26166.25631173  .00001891  00000+0  11715-3 0  9997
2 62111  49.9422 171.5501 0007753 292.9982  67.0150 15.14621823 85898
GUANGCHUAN 02           
1 62112U 24221B   26166.19318487  .00002167  00000+0  13198-3 0  9995
2 62112  49.9406 171.8011 0006913 336.5952  23.4683 15.14590872 85873
STARLINK-32311          
1 62114U 24222A   26166.05990422  .00017281  00000+0  63597-3 0  9999
2 62114  43.0040 291.3093 0000870 285.3236  74.7520 15.27584121 87970
STARLINK-32470          
1 62115U 24222B   26165.67479307  .00017201  00000+0  63281-3 0  9993
2 62115  43.0041 308.2980 0003972 279.6727  80.3676 15.27593374 87731
STARLINK-32502          
1 62116U 24222C   26166.08896751  .00016976  00000+0  62532-3 0  9992
2 62116  43.0008 306.2362 0002249 266.3630  93.6964 15.27561499 87706
STARLINK-32521          
1 62117U 24222D   26166.07527434  .00026051  00000+0  95225-3 0  9991
2 62117  42.9979 302.5574 0002463 270.6107  89.4463 15.27599099 87682
STARLINK-32549          
1 62118U 24222E   26166.11835777  .00028189  00000+0  10292-2 0  9993
2 62118  43.0071 305.5990 0003041 269.7904  90.2599 15.27602709 87717
STARLINK-32535          
1 62119U 24222F   26166.09716998  .00033258  00000+0  12122-2 0  9991
2 62119  42.9997 302.8407 0000366 282.6012  77.4798 15.27592194 87698
STARLINK-32548          
1 62120U 24222G   26166.10308424  .00026908  00000+0  98295-3 0  9996
2 62120  43.0056 306.3418 0002036 269.0264  91.0355 15.27607722 87654
STARLINK-32525          
1 62121U 24222H   26165.66708151  .00014793  00000+0  54575-3 0  9990
2 62121  43.0012 308.2309 0005371 275.2608  84.7631 15.27586316 87597
STARLINK-32628          
1 62122U 24222J   26166.07738878  .00017890  00000+0  65763-3 0  9998
2 62122  43.0027 306.1501 0000624 283.9611  76.1171 15.27601156 87810
STARLINK-32626          
1 62123U 24222K   26166.09665944  .00020085  00000+0  73712-3 0  9997
2 62123  42.9980 306.2915 0002248 264.7756  95.2839 15.27592536 87643
STARLINK-32608          
1 62124U 24222L   26165.67864422  .00014922  00000+0  55042-3 0  9992
2 62124  43.0005 308.3179 0001547 282.8900  77.1779 15.27594512 87572
STARLINK-32488          
1 62125U 24222M   26166.10694599  .00020812  00000+0  76377-3 0  9997
2 62125  43.0053 306.3705 0000934 289.2668  70.8083 15.27576482 87541
STARLINK-32490          
1 62126U 24222N   26165.66322595  .00015867  00000+0  58470-3 0  9990
2 62126  43.0015 308.1974 0002614 260.2112  99.8445 15.27587971 87580
STARLINK-32557          
1 62127U 24222P   26166.07497634  .00021239  00000+0  77860-3 0  9998
2 62127  43.0032 295.5994 0000807 286.4205  73.6557 15.27602261 87816
STARLINK-32568          
1 62128U 24222Q   26165.11200886  .00026116  00000+0  95494-3 0  9996
2 62128  43.0030 311.8014 0001905 268.1585  91.9048 15.27588551 87237
STARLINK-32462          
1 62129U 24222R   26166.09071706  .00014629  00000+0  53979-3 0  9990
2 62129  42.9978 302.7924 0002280 269.6681  90.3910 15.27597019 87685
STARLINK-32463          
1 62130U 24222S   26165.67093554  .00016972  00000+0  62475-3 0  9994
2 62130  43.0028 308.2599 0002601 270.5429  89.5124 15.27585116 87583
STARLINK-32550          
1 62131U 24222T   26166.09922464  .00021889  00000+0  80193-3 0  9993
2 62131  42.9983 306.3106 0002550 268.6918  91.3641 15.27605683 87698
STARLINK-32507          
1 62132U 24222U   26166.11450680  .00021506  00000+0  78842-3 0  9997
2 62132  43.0033 305.5668 0001844 270.7975  89.2665 15.27593242 87502
STARLINK-32245          
1 62133U 24222V   26166.08509482  .00018702  00000+0  68713-3 0  9999
2 62133  43.0011 306.2046 0002520 276.5413  83.5151 15.27591819 87808
STARLINK-32546          
1 62134U 24222W   26166.09457408  .00015002  00000+0  55326-3 0  9997
2 62134  43.0059 302.8188 0001428 278.1955  81.8735 15.27599146 87579
STARLINK-32545          
1 62135U 24222X   26166.11080109  .00021588  00000+0  79143-3 0  9990
2 62135  43.0030 306.3974 0000895 273.4810  86.5939 15.27591635 87692
STARLINK-32554          
1 62136U 24222Y   26166.07481485  .00027075  00000+0  98850-3 0  9991
2 62136  42.9943 306.1246 0002870 281.9152  78.1377 15.27621006 87691
STARLINK-32570          
1 62137U 24222Z   26166.08123368  .00023905  00000+0  87471-3 0  9991
2 62137  42.9904 306.1716 0002593 277.8885  82.1672 15.27603546 87793
KONDOR-FKA NO. 2        
1 62138U 24223A   26166.26935012  .00002961  00000+0  14169-3 0  9993
2 62138  97.4418   9.7387 0001914 102.0526 258.0924 15.19751753 85412
STARLINK-32529          
1 62139U 24224A   26166.15550106  .00016251  00000+0  59830-3 0  9991
2 62139  42.9968 327.9105 0002418 271.8734  88.1840 15.27605018 87329
STARLINK-32464          
1 62140U 24224B   26166.16321537  .00014333  00000+0  52922-3 0  9992
2 62140  43.0029 327.9455 0000964 268.2433  91.8308 15.27588388 87329
STARLINK-32482          
1 62141U 24224C   26165.73234629  .00015193  00000+0  56037-3 0  9996
2 62141  42.9973 329.8688 0001365 254.5527 105.5174 15.27586345 87160
STARLINK-32454          
1 62142U 24224D   26166.18537475  .00012385  00000+0  45860-3 0  9994
2 62142  43.0029 335.0316 0000724 291.6170  68.4605 15.27594891 87303
STARLINK-32485          
1 62143U 24224E   26166.18313988  .00022131  00000+0  81098-3 0  9999
2 62143  42.9991 330.6939 0002204 267.7695  92.2904 15.27593220 86922
STARLINK-32388          
1 62144U 24224F   26166.18151550  .00022771  00000+0  83405-3 0  9999
2 62144  43.0120 335.0018 0002155 267.8987  92.1618 15.27595990 87306
STARLINK-32374          
1 62145U 24224G   26166.14650715  .00020108  00000+0  73815-3 0  9999
2 62145  42.9993 327.8170 0001672 270.3034  89.7626 15.27583669 87385
STARLINK-32384          
1 62146U 24224H   26166.14778564  .00018076  00000+0  66413-3 0  9990
2 62146  42.9938 327.8273 0003681 281.6306  78.4132 15.27608644 87386
STARLINK-32295          
1 62147U 24224J   26166.25002315  .00002084  00000+0  85259-4 0  9999
2 62147  43.0030 327.3837 0001602 264.9204 241.4124 15.27567975  5761
STARLINK-32479          
1 62148U 24224K   26166.13750979  .00018827  00000+0  69166-3 0  9993
2 62148  42.9935 327.7509 0002328 278.5999  81.4589 15.27592559 87327
STARLINK-32468          
1 62149U 24224L   26165.74390786  .00022830  00000+0  83535-3 0  9991
2 62149  43.0129 329.9649 0000875 125.1469 234.9465 15.27628821 87160
STARLINK-32629          
1 62150U 24224M   26166.17464097  .00017050  00000+0  62751-3 0  9993
2 62150  42.9988 327.1703 0000508  71.8128 288.2779 15.27588346 87398
STARLINK-32644          
1 62151U 24224N   26166.15679224  .00017714  00000+0  65214-3 0  9996
2 62151  43.0029 327.8908 0002183 273.3628  86.6974 15.27556096 87389
STARLINK-32623          
1 62152U 24224P   26165.73571577  .00019945  00000+0  73200-3 0  9994
2 62152  43.0009 333.3524 0003704 273.6812  86.3616 15.27591714 87221
STARLINK-32639          
1 62153U 24224Q   26166.15422464  .00012851  00000+0  47540-3 0  9999
2 62153  43.0009 327.8740 0001700 263.7193  96.3465 15.27601747 87227
STARLINK-32625          
1 62154U 24224R   26166.25002315  .00003569  00000+0  13921-3 0  9992
2 62154  43.0032 327.4333 0001633 265.0437 220.0585 15.27566077  5820
STARLINK-32635          
1 62155U 24224S   26166.18923965  .00019017  00000+0  69904-3 0  9995
2 62155  43.0047 335.0587 0001079 260.1241  99.9489 15.27568347 87149
STARLINK-32532          
1 62156U 24224T   26165.73620188  .00017770  00000+0  65341-3 0  9992
2 62156  43.0051 329.9013 0004332 278.5038  81.5323 15.27589544 87161
STARLINK-32503          
1 62157U 24224U   26166.17766291  .00015554  00000+0  57375-3 0  9994
2 62157  43.0100 334.9701 0000613 285.5465  74.5319 15.27569893 86876
STARLINK-32508          
1 62158U 24224V   26166.14007375  .00022099  00000+0  80943-3 0  9992
2 62158  42.9916 327.7641 0002626 283.2258  76.8300 15.27608403 87387
